DELTA 2 R/B(1)          
1 20453U 90008B   25363.15439228  .00069452  00000+0  10609-2 0  9997
2 20453  35.6064 274.4261 0108357 327.1033  32.2990 15.46695022915177
COSMOS 2058             
1 20465U 90010A   25362.78874211  .00006159  00000+0  37057-3 0  9998
2 20465  82.4706 117.2453 0009784 213.6087 146.4523 15.10634557931537
SL-14 R/B               
1 20466U 90010B   25363.27091220  .00000745  00000+0  87479-4 0  9994
2 20466  82.5026 333.5204 0020083 167.4309 192.7411 14.83488464918043
SL-14 R/B               
1 20511U 90018B   25363.22094497  .00000746  00000+0  90808-4 0  9998
2 20511  82.5221 288.9614 0015588 328.8920  31.1370 14.82065334912146
HST                     
1 20580U 90037B   25362.79228396  .00009035  00000+0  31078-3 0  9996
2 20580  28.4653 163.2077 0002570  57.8157 302.2687 15.28256861762454
SL-16 R/B               
1 20625U 90046B   25363.21726038  .00000069  00000+0  60433-4 0  9996
2 20625  70.9992  85.9182 0012463  45.2695 314.9440 14.14997789838422
COSMOS 2084             
1 20663U 90055A   25363.04522033  .00004057  00000+0  29512-3 0  9991
2 20663  62.7888 216.4308 0029082 176.9131 183.2154 15.05118686925686
SL-6 R/B(2)             
1 20666U 90055D   25362.80025347  .00003383  00000+0  26313-3 0  9990
2 20666  62.7828 134.8411 0014606 319.4781  40.5230 15.03156055927538
SL-8 R/B                
1 20775U 90078B   25363.29319923  .00018893  00000+0  58165-3 0  9998
2 20775  82.9054 314.4871 0369731 250.1457 105.9565 14.86522617798830
SL-8 R/B                
1 21088U 91006B   25363.17883502  .00000079  00000+0  63958-4 0  9998
2 21088  82.9410 222.4850 0021426 231.0117 250.1562 13.77492880754363
OKEAN-3                 
1 21397U 91039A   25363.11353470  .00004254  00000+0  30365-3 0  9991
2 21397  82.5164  45.1970 0013696 203.7770 156.2825 15.04222664854421
COSMOS 2151             
1 21422U 91042A   25363.23672344  .00003751  00000+0  30119-3 0  9999
2 21422  82.4967 151.6049 0011413 300.8235  59.1866 14.99758085852631
