CCSDS_OMM_VERS = 2.0
CREATION_DATE  = 
ORIGINATOR     = 

OBJECT_NAME    = DELTA 2 R/B(1)
OBJECT_ID      = 1990-008B
CENTER_NAME    = EARTH
REF_FRAME      = TEME
TIME_SYSTEM    = UTC
MEAN_ELEMENT_THEORY = SGP/SGP4

EPOCH          = 2025-12-29T03:42:19.492992
MEAN_MOTION    = 15.46695022
ECCENTRICITY   = .0108357
INCLINATION    = 35.6064
RA_OF_ASC_NODE = 274.4261
ARG_OF_PERICENTER = 327.1033
MEAN_ANOMALY   = 32.2990

EPHEMERIS_TYPE = 0
CLASSIFICATION_TYPE = U
NORAD_CAT_ID   = 20453
ELEMENT_SET_NO = 999
REV_AT_EPOCH   = 91517
BSTAR          = .10608787E-2
MEAN_MOTION_DOT = .69452E-3
MEAN_MOTION_DDOT = 0

CCSDS_OMM_VERS = 2.0
CREATION_DATE  = 
ORIGINATOR     = 

OBJECT_NAME    = COSMOS 2058
OBJECT_ID      = 1990-010A
CENTER_NAME    = EARTH
REF_FRAME      = TEME
TIME_SYSTEM    = UTC
MEAN_ELEMENT_THEORY = SGP/SGP4

EPOCH          = 2025-12-28T18:55:47.318304
MEAN_MOTION    = 15.10634557
ECCENTRICITY   = .00097842
INCLINATION    = 82.4706
RA_OF_ASC_NODE = 117.2453
ARG_OF_PERICENTER = 213.6087
MEAN_ANOMALY   = 146.4523

EPHEMERIS_TYPE = 0
CLASSIFICATION_TYPE = U
NORAD_CAT_ID   = 20465
ELEMENT_SET_NO = 999
REV_AT_EPOCH   = 93153
BSTAR          = .37056669E-3
MEAN_MOTION_DOT = .6159E-4
MEAN_MOTION_DDOT = 0

CCSDS_OMM_VERS = 2.0
CREATION_DATE  = 
ORIGINATOR     = 

OBJECT_NAME    = SL-14 R/B
OBJECT_ID      = 1990-010B
CENTER_NAME    = EARTH
REF_FRAME      = TEME
TIME_SYSTEM    = UTC
MEAN_ELEMENT_THEORY = SGP/SGP4

EPOCH          = 2025-12-29T06:30:06.814080
MEAN_MOTION    = 14.83488464
ECCENTRICITY   = .00200832
INCLINATION    = 82.5026
RA_OF_ASC_NODE = 333.5204
ARG_OF_PERICENTER = 167.4309
MEAN_ANOMALY   = 192.7411

EPHEMERIS_TYPE = 0
CLASSIFICATION_TYPE = U
NORAD_CAT_ID   = 20466
ELEMENT_SET_NO = 999
REV_AT_EPOCH   = 91804
BSTAR          = .87478618E-4
MEAN_MOTION_DOT = .745E-5
MEAN_MOTION_DDOT = 0

CCSDS_OMM_VERS = 2.0
CREATION_DATE  = 
ORIGINATOR     = 

OBJECT_NAME    = SL-14 R/B
OBJECT_ID      = 1990-018B
CENTER_NAME    = EARTH
REF_FRAME      = TEME
TIME_SYSTEM    = UTC
MEAN_ELEMENT_THEORY = SGP/SGP4

EPOCH          = 2025-12-29T05:18:09.645408
MEAN_MOTION    = 14.82065334
ECCENTRICITY   = .00155889
INCLINATION    = 82.5221
RA_OF_ASC_NODE = 288.9614
ARG_OF_PERICENTER = 328.8920
MEAN_ANOMALY   = 31.1370

EPHEMERIS_TYPE = 0
CLASSIFICATION_TYPE = U
NORAD_CAT_ID   = 20511
ELEMENT_SET_NO = 999
REV_AT_EPOCH   = 91214
BSTAR          = .90808126E-4
MEAN_MOTION_DOT = .746E-5
MEAN_MOTION_DDOT = 0

CCSDS_OMM_VERS = 2.0
CREATION_DATE  = 
ORIGINATOR     = 

OBJECT_NAME    = HST
OBJECT_ID      = 1990-037B
CENTER_NAME    = EARTH
REF_FRAME      = TEME
TIME_SYSTEM    = UTC
MEAN_ELEMENT_THEORY = SGP/SGP4

EPOCH          = 2025-12-28T19:00:53.334144
MEAN_MOTION    = 15.28256861
ECCENTRICITY   = .000257
INCLINATION    = 28.4653
RA_OF_ASC_NODE = 163.2077
ARG_OF_PERICENTER = 57.8157
MEAN_ANOMALY   = 302.2687

EPHEMERIS_TYPE = 0
CLASSIFICATION_TYPE = U
NORAD_CAT_ID   = 20580
ELEMENT_SET_NO = 999
REV_AT_EPOCH   = 76245
BSTAR          = .31077791E-3
MEAN_MOTION_DOT = .9035E-4
MEAN_MOTION_DDOT = 0

CCSDS_OMM_VERS = 2.0
CREATION_DATE  = 
ORIGINATOR     = 

OBJECT_NAME    = SL-16 R/B
OBJECT_ID      = 1990-046B
CENTER_NAME    = EARTH
REF_FRAME      = TEME
TIME_SYSTEM    = UTC
MEAN_ELEMENT_THEORY = SGP/SGP4

EPOCH          = 2025-12-29T05:12:51.296832
MEAN_MOTION    = 14.14997789
ECCENTRICITY   = .00124636
INCLINATION    = 70.9992
RA_OF_ASC_NODE = 85.9182
ARG_OF_PERICENTER = 45.2695
MEAN_ANOMALY   = 314.9440

EPHEMERIS_TYPE = 0
CLASSIFICATION_TYPE = U
NORAD_CAT_ID   = 20625
ELEMENT_SET_NO = 999
REV_AT_EPOCH   = 83842
BSTAR          = .60432683E-4
MEAN_MOTION_DOT = .69E-6
MEAN_MOTION_DDOT = 0

CCSDS_OMM_VERS = 2.0
CREATION_DATE  = 
ORIGINATOR     = 

OBJECT_NAME    = COSMOS 2084
OBJECT_ID      = 1990-055A
CENTER_NAME    = EARTH
REF_FRAME      = TEME
TIME_SYSTEM    = UTC
MEAN_ELEMENT_THEORY = SGP/SGP4

EPOCH          = 2025-12-29T01:05:07.036512
MEAN_MOTION    = 15.05118686
ECCENTRICITY   = .00290828
INCLINATION    = 62.7888
RA_OF_ASC_NODE = 216.4308
ARG_OF_PERICENTER = 176.9131
MEAN_ANOMALY   = 183.2154

EPHEMERIS_TYPE = 0
CLASSIFICATION_TYPE = U
NORAD_CAT_ID   = 20663
ELEMENT_SET_NO = 999
REV_AT_EPOCH   = 92568
BSTAR          = .2951205E-3
MEAN_MOTION_DOT = .4057E-4
MEAN_MOTION_DDOT = 0

CCSDS_OMM_VERS = 2.0
CREATION_DATE  = 
ORIGINATOR     = 

OBJECT_NAME    = SL-6 R/B(2)
OBJECT_ID      = 1990-055D
CENTER_NAME    = EARTH
REF_FRAME      = TEME
TIME_SYSTEM    = UTC
MEAN_ELEMENT_THEORY = SGP/SGP4

EPOCH          = 2025-12-28T19:12:21.899808
MEAN_MOTION    = 15.03156055
ECCENTRICITY   = .00146068
INCLINATION    = 62.7828
RA_OF_ASC_NODE = 134.8411
ARG_OF_PERICENTER = 319.4781
MEAN_ANOMALY   = 40.5230

EPHEMERIS_TYPE = 0
CLASSIFICATION_TYPE = U
NORAD_CAT_ID   = 20666
ELEMENT_SET_NO = 999
REV_AT_EPOCH   = 92753
BSTAR          = .26313352E-3
MEAN_MOTION_DOT = .3383E-4
MEAN_MOTION_DDOT = 0

CCSDS_OMM_VERS = 2.0
CREATION_DATE  = 
ORIGINATOR     = 

OBJECT_NAME    = SL-8 R/B
OBJECT_ID      = 1990-078B
CENTER_NAME    = EARTH
REF_FRAME      = TEME
TIME_SYSTEM    = UTC
MEAN_ELEMENT_THEORY = SGP/SGP4

EPOCH          = 2025-12-29T07:02:12.413472
MEAN_MOTION    = 14.86522617
ECCENTRICITY   = .03697316
INCLINATION    = 82.9054
RA_OF_ASC_NODE = 314.4871
ARG_OF_PERICENTER = 250.1457
MEAN_ANOMALY   = 105.9565

EPHEMERIS_TYPE = 0
CLASSIFICATION_TYPE = U
NORAD_CAT_ID   = 20775
ELEMENT_SET_NO = 999
REV_AT_EPOCH   = 79883
BSTAR          = .58165235E-3
MEAN_MOTION_DOT = .18893E-3
MEAN_MOTION_DDOT = 0

CCSDS_OMM_VERS = 2.0
CREATION_DATE  = 
ORIGINATOR     = 

OBJECT_NAME    = SL-8 R/B
OBJECT_ID      = 1991-006B
CENTER_NAME    = EARTH
REF_FRAME      = TEME
TIME_SYSTEM    = UTC
MEAN_ELEMENT_THEORY = SGP/SGP4

EPOCH          = 2025-12-29T04:17:31.345728
MEAN_MOTION    = 13.77492880
ECCENTRICITY   = .00214268
INCLINATION    = 82.9410
RA_OF_ASC_NODE = 222.4850
ARG_OF_PERICENTER = 231.0117
MEAN_ANOMALY   = 250.1562

EPHEMERIS_TYPE = 0
CLASSIFICATION_TYPE = U
NORAD_CAT_ID   = 21088
ELEMENT_SET_NO = 999
REV_AT_EPOCH   = 75436
BSTAR          = .63958023E-4
MEAN_MOTION_DOT = .79E-6
MEAN_MOTION_DDOT = 0

CCSDS_OMM_VERS = 2.0
CREATION_DATE  = 
ORIGINATOR     = 

OBJECT_NAME    = OKEAN-3
OBJECT_ID      = 1991-039A
CENTER_NAME    = EARTH
REF_FRAME      = TEME
TIME_SYSTEM    = UTC
MEAN_ELEMENT_THEORY = SGP/SGP4

EPOCH          = 2025-12-29T02:43:29.398080
MEAN_MOTION    = 15.04222664
ECCENTRICITY   = .00136965
INCLINATION    = 82.5164
RA_OF_ASC_NODE = 45.1970
ARG_OF_PERICENTER = 203.7770
MEAN_ANOMALY   = 156.2825

EPHEMERIS_TYPE = 0
CLASSIFICATION_TYPE = U
NORAD_CAT_ID   = 21397
ELEMENT_SET_NO = 999
REV_AT_EPOCH   = 85442
BSTAR          = .30364515E-3
MEAN_MOTION_DOT = .4254E-4
MEAN_MOTION_DDOT = 0

CCSDS_OMM_VERS = 2.0
CREATION_DATE  = 
ORIGINATOR     = 

OBJECT_NAME    = COSMOS 2151
OBJECT_ID      = 1991-042A
CENTER_NAME    = EARTH
REF_FRAME      = TEME
TIME_SYSTEM    = UTC
MEAN_ELEMENT_THEORY = SGP/SGP4

EPOCH          = 2025-12-29T05:40:52.905216
MEAN_MOTION    = 14.99758085
ECCENTRICITY   = .00114134
INCLINATION    = 82.4967
RA_OF_ASC_NODE = 151.6049
ARG_OF_PERICENTER = 300.8235
MEAN_ANOMALY   = 59.1866

EPHEMERIS_TYPE = 0
CLASSIFICATION_TYPE = U
NORAD_CAT_ID   = 21422
ELEMENT_SET_NO = 999
REV_AT_EPOCH   = 85263
BSTAR          = .30119338E-3
MEAN_MOTION_DOT = .3751E-4
MEAN_MOTION_DDOT = 0

